     3.03           N: GNSS NAV DATA    M: MIXED            RINEX VERSION / TYPE
GR30 V4.20          ASI-egeos           20210730 235942 UTC PGM / RUN BY / DATE
GAL    8.6250D+01  3.2031D-01  2.1667D-03                   IONOSPHERIC CORR
GPSA   4.6566D-09  1.4901D-08 -5.9605D-08 -5.9605D-08       IONOSPHERIC CORR
GPSB   7.7824D+04  4.9152D+04 -6.5536D+04 -3.2768D+05       IONOSPHERIC CORR
BDSA   7.4506D-09  5.2154D-08 -4.1723D-07  6.5565D-07 W 05  IONOSPHERIC CORR
BDSA   7.4506D-09  5.2154D-08 -4.1723D-07  6.5565D-07 O 06  IONOSPHERIC CORR
BDSA   7.4506D-09  5.2154D-08 -4.1723D-07  6.5565D-07 W 07  IONOSPHERIC CORR
BDSA   7.4506D-09  6.7055D-08 -5.3644D-07  8.3447D-07 G 08  IONOSPHERIC CORR
BDSA   7.4506D-09  5.2154D-08 -4.1723D-07  6.5565D-07 S 09  IONOSPHERIC CORR
BDSA   7.4506D-09  5.2154D-08 -4.1723D-07  6.5565D-07 W 10  IONOSPHERIC CORR
BDSA   7.4506D-09  6.7055D-08 -5.3644D-07  8.3447D-07 P 11  IONOSPHERIC CORR
BDSA   8.3819D-09  7.4506D-08 -5.3644D-07  8.3447D-07 N 12  IONOSPHERIC CORR
BDSA   7.4506D-09  5.9605D-08 -4.7684D-07  7.1526D-07 I 13  IONOSPHERIC CORR
BDSA   7.4506D-09  5.2154D-08 -4.1723D-07  6.5565D-07 W 14  IONOSPHERIC CORR
BDSA   7.4506D-09  5.2154D-08 -4.1723D-07  6.5565D-07 O 16  IONOSPHERIC CORR
BDSA   7.4506D-09  5.2154D-08 -4.1723D-07  6.5565D-07 Q 19  IONOSPHERIC CORR
BDSA   7.4506D-09  5.2154D-08 -4.1723D-07  6.5565D-07 M 20  IONOSPHERIC CORR
BDSA   7.4506D-09  5.2154D-08 -4.1723D-07  6.5565D-07 U 21  IONOSPHERIC CORR
BDSA   7.4506D-09  5.2154D-08 -4.1723D-07  6.5565D-07 S 22  IONOSPHERIC CORR
BDSA   7.4506D-09  5.2154D-08 -4.1723D-07  6.5565D-07 X 23  IONOSPHERIC CORR
BDSA   7.4506D-09  5.2154D-08 -4.1723D-07  6.5565D-07 W 24  IONOSPHERIC CORR
BDSA   7.4506D-09  5.2154D-08 -4.1723D-07  6.5565D-07 W 25  IONOSPHERIC CORR
BDSA   7.4506D-09  5.2154D-08 -4.1723D-07  6.5565D-07 W 26  IONOSPHERIC CORR
BDSA   7.4506D-09  5.9605D-08 -4.7684D-07  7.1526D-07 I 27  IONOSPHERIC CORR
BDSA   7.4506D-09  5.2154D-08 -4.1723D-07  6.5565D-07 S 28  IONOSPHERIC CORR
BDSA   7.4506D-09  5.2154D-08 -4.1723D-07  6.5565D-07 O 29  IONOSPHERIC CORR
BDSA   7.4506D-09  5.2154D-08 -4.1723D-07  6.5565D-07 K 30  IONOSPHERIC CORR
BDSB   1.2288D+05 -1.6384D+05  1.5729D+06 -1.1141D+06 W 05  IONOSPHERIC CORR
BDSB   1.2493D+05 -2.1299D+05  1.9005D+06 -1.4418D+06 O 06  IONOSPHERIC CORR
BDSB   1.2288D+05 -1.6384D+05  1.5729D+06 -1.1141D+06 W 07  IONOSPHERIC CORR
BDSB   1.2902D+05 -3.7683D+05  2.7525D+06 -1.9661D+06 G 08  IONOSPHERIC CORR
BDSB   1.2698D+05 -1.9661D+05  1.7695D+06 -1.3107D+06 S 09  IONOSPHERIC CORR
BDSB   1.2288D+05 -1.6384D+05  1.5729D+06 -1.1141D+06 W 10  IONOSPHERIC CORR
BDSB   1.2902D+05 -3.7683D+05  2.7525D+06 -1.9661D+06 P 11  IONOSPHERIC CORR
BDSB   1.2698D+05 -2.7853D+05  2.2282D+06 -1.6384D+06 N 12  IONOSPHERIC CORR
BDSB   1.2902D+05 -2.9491D+05  2.2938D+06 -1.7039D+06 I 13  IONOSPHERIC CORR
BDSB   1.2288D+05 -1.6384D+05  1.5729D+06 -1.1141D+06 W 14  IONOSPHERIC CORR
BDSB   1.2493D+05 -2.1299D+05  1.9005D+06 -1.4418D+06 O 16  IONOSPHERIC CORR
BDSB   1.2493D+05 -1.8022D+05  1.7039D+06 -1.2452D+06 Q 19  IONOSPHERIC CORR
BDSB   1.2493D+05 -1.9661D+05  1.8350D+06 -1.4418D+06 M 20  IONOSPHERIC CORR
BDSB   1.2493D+05 -2.1299D+05  1.7695D+06 -1.2452D+06 U 21  IONOSPHERIC CORR
BDSB   1.2698D+05 -1.9661D+05  1.7695D+06 -1.3107D+06 S 22  IONOSPHERIC CORR
BDSB   1.2288D+05 -1.6384D+05  1.5729D+06 -1.1141D+06 X 23  IONOSPHERIC CORR
BDSB   1.2288D+05 -1.6384D+05  1.5729D+06 -1.1141D+06 W 24  IONOSPHERIC CORR
BDSB   1.2288D+05 -1.6384D+05  1.5729D+06 -1.1141D+06 W 25  IONOSPHERIC CORR
BDSB   1.2288D+05 -1.6384D+05  1.5729D+06 -1.1141D+06 W 26  IONOSPHERIC CORR
BDSB   1.2902D+05 -2.9491D+05  2.2938D+06 -1.7039D+06 I 27  IONOSPHERIC CORR
BDSB   1.2698D+05 -1.9661D+05  1.7695D+06 -1.3107D+06 S 28  IONOSPHERIC CORR
BDSB   1.2493D+05 -2.1299D+05  1.9005D+06 -1.4418D+06 O 29  IONOSPHERIC CORR
BDSB   1.2698D+05 -2.4576D+05  2.1627D+06 -1.5729D+06 K 30  IONOSPHERIC CORR
GPUT -4.6566128731D-09-9.769962617D-15  61440 2169          TIME SYSTEM CORR
GLUT -1.8626451492D-09 0.000000000D+00      0    0          TIME SYSTEM CORR
GAUT  9.3132257462D-10 0.000000000D+00 432000 2168          TIME SYSTEM CORR
GPGA  3.4633558244D-09 0.000000000D+00 518400 2168          TIME SYSTEM CORR
BDUT -4.6566128731D-09-2.042810365D-14 518345  812          TIME SYSTEM CORR
    18    18  1929     7                                    LEAP SECONDS
                                                            END OF HEADER
E05 2021 07 31 16 00 00-2.608791692182D-04 2.870592652471D-12 0.000000000000D+00
     6.400000000000D+01-4.387500000000D+01 3.466930125841D-09 1.007311472075D+00
    -2.097338438034D-06 1.545075792819D-04 6.621703505516D-06 5.440625074387D+03
     5.760000000000D+05-4.097819328308D-08-2.659406040582D+00-3.911554813385D-08
     9.554538934841D-01 1.904062500000D+02-9.137123714678D-01-5.739524788531D-09
    -2.532248335450D-10 2.580000000000D+02 2.168000000000D+03 0.000000000000D+00
     3.120000000000D+00 0.000000000000D+00 3.492459654808D-09 0.000000000000D+00
     5.767000000000D+05
E04 2021 07 31 16 00 00-8.250896353275D-04-8.085976332950D-12 0.000000000000D+00
     6.400000000000D+01-4.334375000000D+01 3.402641733686D-09 2.906513818047D+00
    -2.034008502960D-06 2.242214977741D-04 7.016584277153D-06 5.440622018814D+03
     5.760000000000D+05-5.587935447693D-09-2.659318957457D+00-1.862645149231D-08
     9.554837501791D-01 1.907812500000D+02-1.237930749608D+00-5.681665235591D-09
    -1.953652806053D-10 2.580000000000D+02 2.168000000000D+03 0.000000000000D+00
     3.120000000000D+00 0.000000000000D+00-2.793967723846D-09 0.000000000000D+00
     5.767000000000D+05
E09 2021 07 31 16 00 00 5.581824807450D-03-1.276134753425D-11 0.000000000000D+00
     6.400000000000D+01-4.315625000000D+01 3.356925543709D-09 1.298324504930D+00
    -1.916661858559D-06 3.650715807453D-04 6.886199116707D-06 5.440625686646D+03
     5.760000000000D+05 3.539025783539D-08-2.663913327757D+00 0.000000000000D+00
     9.614373600909D-01 1.912187500000D+02-4.325334471542D-01-5.689879863478D-09
    -1.832219176426D-10 2.580000000000D+02 2.168000000000D+03 0.000000000000D+00
     3.120000000000D+00 0.000000000000D+00 1.629814505577D-09 0.000000000000D+00
     5.767000000000D+05
G02 2021 07 31 18 00 00-6.233346648514D-04-2.501110429876D-12 0.000000000000D+00
     2.600000000000D+01-2.406250000000D+01 4.391968657409D-09-2.666326680306D+00
    -1.160427927971D-06 2.020068012644D-02 7.772818207741D-06 5.153727813721D+03
     5.832000000000D+05 2.253800630569D-07 1.631629456396D+00 1.806765794754D-07
     9.634110867388D-01 2.249687500000D+02-1.502926311073D+00-7.671748130532D-09
     2.371527355062D-10 1.000000000000D+00 2.168000000000D+03 0.000000000000D+00
     2.000000000000D+00 0.000000000000D+00-1.769512891769D-08 2.600000000000D+01
     5.767800000000D+05                   
E01 2021 07 31 16 00 00-1.161799591500D-03-8.014922059374D-12 0.000000000000D+00
     6.400000000000D+01 9.650000000000D+01 2.834760936314D-09 2.113515224690D+00
     4.529953002930D-06 2.122238511220D-04 6.500631570816D-06 5.440608049393D+03
     5.760000000000D+05-1.862645149231D-08-5.605343815584D-01-2.235174179077D-08
     9.771414667557D-01 2.080000000000D+02-1.744654008345D+00-5.574875073067D-09
     1.317912039184D-10 5.130000000000D+02 2.168000000000D+03 0.000000000000D+00
     3.120000000000D+00 0.000000000000D+00 2.328306436539D-10 2.328306436539D-10
     5.770450000000D+05
E01 2021 07 31 16 00 00-1.161798951216D-03-8.014922059374D-12 0.000000000000D+00
     6.400000000000D+01 9.650000000000D+01 2.834760936314D-09 2.113515224690D+00
     4.529953002930D-06 2.122238511220D-04 6.500631570816D-06 5.440608049393D+03
     5.760000000000D+05-1.862645149231D-08-5.605343815584D-01-2.235174179077D-08
     9.771414667557D-01 2.080000000000D+02-1.744654008345D+00-5.574875073067D-09
     1.317912039184D-10 2.580000000000D+02 2.168000000000D+03 0.000000000000D+00
     3.120000000000D+00 0.000000000000D+00 2.328306436539D-10 0.000000000000D+00
     5.770500000000D+05
E36 2021 07 31 16 00 00-2.420042874292D-04-5.229594535194D-12 0.000000000000D+00
     6.400000000000D+01-4.356250000000D+01 2.662610908432D-09 9.188911570593D-01
    -1.963227987289D-06 1.217885874212D-04 7.985159754753D-06 5.440606573105D+03
     5.760000000000D+05-2.235174179077D-08 1.518991670729D+00 9.313225746155D-09
     9.952631011373D-01 1.858750000000D+02 1.288603662989D+00-5.351651489194D-09
     1.210764718925D-10 5.130000000000D+02 2.168000000000D+03 0.000000000000D+00
     3.120000000000D+00 0.000000000000D+00 6.053596735001D-09 6.752088665962D-09
     5.772250000000D+05
E36 2021 07 31 16 10 00-2.420073724352D-04-5.229594535194D-12 0.000000000000D+00
     6.500000000000D+01-4.521875000000D+01 2.650110387735D-09 9.903204451530D-01
    -2.032145857811D-06 1.217961544171D-04 7.886439561844D-06 5.440607286453D+03
     5.766000000000D+05-2.048909664154D-08 1.518988450846D+00 5.587935447693D-09
     9.952631801349D-01 1.882500000000D+02 1.291560015619D+00-5.349865700523D-09
     1.214336296267D-10 5.130000000000D+02 2.168000000000D+03 0.000000000000D+00
     3.120000000000D+00 0.000000000000D+00 6.053596735001D-09 6.752088665962D-09
     5.772550000000D+05
E04 2021 07 31 16 10 00-8.250952814706D-04-8.085976332950D-12 0.000000000000D+00
     6.500000000000D+01-4.318750000000D+01 3.408356257433D-09 2.980866897140D+00
    -2.050772309303D-06 2.242372138426D-04 7.018446922302D-06 5.440621986389D+03
     5.766000000000D+05-5.587935447693D-09-2.659322358742D+00-1.862645149231D-08
     9.554836346086D-01 1.907812500000D+02-1.237898691221D+00-5.682379551060D-09
    -1.957224383395D-10 5.170000000000D+02 2.168000000000D+03 0.000000000000D+00
     3.120000000000D+00 0.000000000000D+00-2.793967723846D-09-3.259629011154D-09
     5.772640000000D+05
